[{"OBJECT_NAME":"STARLINK-6043","OBJECT_ID":"2023-064S","EPOCH":"2026-03-09T14:14:21.369696","MEAN_MOTION":14.98324758,"ECCENTRICITY":0.000321,"INCLINATION":70.0007,"RA_OF_ASC_NODE":144.6208,"ARG_OF_PERICENTER":270.9566,"MEAN_ANOMALY":89.1225,"EPHEMERIS_TYPE":0,"CLASSIFICATION_TYPE":"U","NORAD_CAT_ID":56464,"ELEMENT_SET_NO":999,"REV_AT_EPOCH":15523,"BSTAR":-4.9377e-5,"MEAN_MOTION_DOT":-6.82e-6,"MEAN_MOTION_DDOT":0},{"OBJECT_NAME":"PSLV R\/B","OBJECT_ID":"2007-001E","EPOCH":"2026-03-09T22:10:17.317056","MEAN_MOTION":14.97920804,"ECCENTRICITY":0.00208593,"INCLINATION":98.0304,"RA_OF_ASC_NODE":98.4358,"ARG_OF_PERICENTER":74.2404,"MEAN_ANOMALY":286.1116,"EPHEMERIS_TYPE":0,"CLASSIFICATION_TYPE":"U","NORAD_CAT_ID":29713,"ELEMENT_SET_NO":999,"REV_AT_EPOCH":3805,"BSTAR":0.00025269605,"MEAN_MOTION_DOT":2.927e-5,"MEAN_MOTION_DDOT":0}]
